0 FENGYUN 1C DEB
1 30891U 99025AYD 13283.07008911  .00000778  00000-0  56036-3 0  3763
2 30891 099.1904 331.7985 0058891 271.4948 149.6817 13.99133764339060
0 FENGYUN 1C DEB
1 30891U 99025AYD 13283.35541845  .00000838  00000-0  60113-3 0  3771
2 30891 099.2010 332.0938 0058099 268.7209 148.8829 13.99134312339109
0 FENGYUN 1C DEB
1 30891U 99025AYD 13286.35895896  .00000928  00000-0  66253-3 0  3784
2 30891 099.2049 335.1185 0058679 261.1174 156.7523 13.99139149339529
0 FENGYUN 1C DEB
1 30891U 99025AYD 13287.36016324  .00001000  00000-0  71097-3 0  3792
2 30891 099.1949 336.1021 0058993 258.6949 159.3934 13.99141588339667
0 FENGYUN 1C DEB
1 30891U 99025AYD 13289.36264125  .00000974  00000-0  69301-3 0  3804
2 30891 099.1916 338.1046 0059260 253.4652 165.4458 13.99147435339949
0 FENGYUN 1C DEB
1 30891U 99025AYD 13291.01894830  .00000990  00000-0  70398-3 0  3818
2 30891 099.1875 339.7579 0059345 249.3008 227.7723 13.99151323340179
0 FENGYUN 1C DEB
1 30891U 99025AYD 13292.36584611  .00000993  00000-0  70605-3 0  3825
2 30891 099.1876 341.1085 0059493 245.6464 171.9865 13.99154390340363
0 FENGYUN 1C DEB
1 30891U 99025AYD 13293.36703882  .00001008  00000-0  71639-3 0  3836
2 30891 099.1878 342.1122 0059590 242.9345 174.9176 13.99156913340501
